start=new Date('2022-09-02T00:00:00.000Z').valueOf();
sats=[{"MEAN_MOTION_DDOT":"0.0000000000000","TLE_LINE2":"2 48361  53.0577   9.5751 0001257  97.5005 262.6127 15.06405041 73360","RA_OF_ASC_NODE":"9.5751","REF_FRAME":"TEME","COUNTRY_CODE":"US","LAUNCH_DATE":"2021-05-04","TIME_SYSTEM":"UTC","GP_ID":"211502260","OBJECT_TYPE":"PAYLOAD","APOAPSIS":"548.069","EPOCH":"2022-09-01T19:56:55.486464","INCLINATION":"53.0577","PERIOD":"95.592","CENTER_NAME":"EARTH","EPHEMERIS_TYPE":"0","MEAN_ANOMALY":"262.6127","MEAN_MOTION":"15.06405041","NORAD_CAT_ID":"48361","SEMIMAJOR_AXIS":"6925.333","DECAY_DATE":null,"ARG_OF_PERICENTER":"97.5005","TLE_LINE1":"1 48361U 21038J   22244.83119776  .00001040  00000-0  88658-4 0  9996","SITE":"AFETR","REV_AT_EPOCH":"7336","OBJECT_NAME":"STARLINK-2591","PERIAPSIS":"546.328","FILE":"3554009","MEAN_ELEMENT_THEORY":"SGP4","OBJECT_ID":"2021-038J","MEAN_MOTION_DOT":"0.00001040","ELEMENT_SET_NO":"999","RCS_SIZE":"LARGE","CLASSIFICATION_TYPE":"U","ECCENTRICITY":"0.00012570","BSTAR":"0.00008865800000"},{"OBJECT_NAME":"STARLINK-2578","DECAY_DATE":null,"ARG_OF_PERICENTER":"93.3079","TLE_LINE1":"1 48362U 21038K   22244.39996532  .00000640  00000-0  61846-4 0  9996","REV_AT_EPOCH":"7330","SITE":"AFETR","PERIAPSIS":"546.375","FILE":"3553574","MEAN_ELEMENT_THEORY":"SGP4","MEAN_MOTION_DOT":"0.00000640","OBJECT_ID":"2021-038K","ELEMENT_SET_NO":"999","CLASSIFICATION_TYPE":"U","BSTAR":"0.00006184600000","ECCENTRICITY":"0.00012440","RCS_SIZE":"LARGE","RA_OF_ASC_NODE":"11.5901","REF_FRAME":"TEME","COUNTRY_CODE":"US","MEAN_MOTION_DDOT":"0.0000000000000","TLE_LINE2":"2 48362  53.0557  11.5901 0001244  93.3079 266.8052 15.06392651 73309","OBJECT_TYPE":"PAYLOAD","LAUNCH_DATE":"2021-05-04","TIME_SYSTEM":"UTC","GP_ID":"211466831","PERIOD":"95.593","CENTER_NAME":"EARTH","EPHEMERIS_TYPE":"0","APOAPSIS":"548.098","INCLINATION":"53.0557","EPOCH":"2022-09-01T09:35:57.003648","NORAD_CAT_ID":"48362","SEMIMAJOR_AXIS":"6925.371","MEAN_ANOMALY":"266.8052","MEAN_MOTION":"15.06392651"},{"TIME_SYSTEM":"UTC","LAUNCH_DATE":"2021-05-04","GP_ID":"211503262","OBJECT_TYPE":"PAYLOAD","MEAN_MOTION_DDOT":"0.0000000000000","TLE_LINE2":"2 48363  53.0569   4.9838 0001368  96.6341 263.4804 15.06402151 73421","COUNTRY_CODE":"US","RA_OF_ASC_NODE":"4.9838","REF_FRAME":"TEME","MEAN_MOTION":"15.06402151","MEAN_ANOMALY":"263.4804","NORAD_CAT_ID":"48363","SEMIMAJOR_AXIS":"6925.342","APOAPSIS":"548.154","EPOCH":"2022-09-01T17:47:33.239616","INCLINATION":"53.0569","PERIOD":"95.592","EPHEMERIS_TYPE":"0","CENTER_NAME":"EARTH","MEAN_ELEMENT_THEORY":"SGP4","FILE":"3554009","PERIAPSIS":"546.260","OBJECT_ID":"2021-038L","MEAN_MOTION_DOT":"0.00000866","DECAY_DATE":null,"SITE":"AFETR","REV_AT_EPOCH":"7342","ARG_OF_PERICENTER":"96.6341","TLE_LINE1":"1 48363U 21038L   22244.74135694  .00000866  00000-0  77023-4 0  9994","OBJECT_NAME":"STARLINK-2626","RCS_SIZE":"LARGE","CLASSIFICATION_TYPE":"U","ECCENTRICITY":"0.00013680","BSTAR":"0.00007702300000","ELEMENT_SET_NO":"999"},{"NORAD_CAT_ID":"48364","SEMIMAJOR_AXIS":"6925.371","MEAN_MOTION":"15.06392755","MEAN_ANOMALY":"264.4389","PERIOD":"95.593","EPHEMERIS_TYPE":"0","CENTER_NAME":"EARTH","APOAPSIS":"548.227","EPOCH":"2022-09-01T18:08:49.066944","INCLINATION":"53.0550","OBJECT_TYPE":"PAYLOAD","TIME_SYSTEM":"UTC","LAUNCH_DATE":"2021-05-04","GP_ID":"211474897","COUNTRY_CODE":"US","RA_OF_ASC_NODE":"5.1133","REF_FRAME":"TEME","MEAN_MOTION_DDOT":"0.0000000000000","TLE_LINE2":"2 48364  53.0550   5.1133 0001432  95.6763 264.4389 15.06392755 74015","CLASSIFICATION_TYPE":"U","BSTAR":"-0.00002756100000","ECCENTRICITY":"0.00014320","RCS_SIZE":"LARGE","ELEMENT_SET_NO":"999","FILE":"3553751","MEAN_ELEMENT_THEORY":"SGP4","PERIAPSIS":"546.244","MEAN_MOTION_DOT":"-0.00000692","OBJECT_ID":"2021-038M","OBJECT_NAME":"STARLINK-2611","DECAY_DATE":null,"SITE":"AFETR","REV_AT_EPOCH":"7401","ARG_OF_PERICENTER":"95.6763","TLE_LINE1":"1 48364U 21038M   22244.75612346 -.00000692  00000-0 -27561-4 0  9991"},{"APOAPSIS":"548.025","EPOCH":"2022-09-01T17:10:24.314016","INCLINATION":"53.0551","PERIOD":"95.593","CENTER_NAME":"EARTH","EPHEMERIS_TYPE":"0","MEAN_ANOMALY":"259.2207","MEAN_MOTION":"15.06386266","NORAD_CAT_ID":"48365","SEMIMAJOR_AXIS":"6925.391","MEAN_MOTION_DDOT":"0.0000000000000","TLE_LINE2":"2 48365  53.0551   5.0940 0001111 100.8907 259.2207 15.06386266 73420","RA_OF_ASC_NODE":"5.0940","REF_FRAME":"TEME","COUNTRY_CODE":"US","LAUNCH_DATE":"2021-05-04","TIME_SYSTEM":"UTC","GP_ID":"211502761","OBJECT_TYPE":"PAYLOAD","ELEMENT_SET_NO":"999","RCS_SIZE":"LARGE","CLASSIFICATION_TYPE":"U","ECCENTRICITY":"0.00011110","BSTAR":"0.00001696900000","DECAY_DATE":null,"ARG_OF_PERICENTER":"100.8907","TLE_LINE1":"1 48365U 21038N   22244.71555919 -.00000029  00000-0  16969-4 0  9993","SITE":"AFETR","REV_AT_EPOCH":"7342","OBJECT_NAME":"STARLINK-2608","PERIAPSIS":"546.486","FILE":"3554009","MEAN_ELEMENT_THEORY":"SGP4","OBJECT_ID":"2021-038N","MEAN_MOTION_DOT":"-0.00000029"},{"CLASSIFICATION_TYPE":"U","BSTAR":"0.00006615700000","ECCENTRICITY":"0.00010340","RCS_SIZE":"LARGE","ELEMENT_SET_NO":"999","FILE":"3554009","MEAN_ELEMENT_THEORY":"SGP4","PERIAPSIS":"546.501","MEAN_MOTION_DOT":"0.00000704","OBJECT_ID":"2021-038P","OBJECT_NAME":"STARLINK-2631","DECAY_DATE":null,"REV_AT_EPOCH":"7348","SITE":"AFETR","ARG_OF_PERICENTER":"107.4216","TLE_LINE1":"1 48366U 21038P   22244.70311449  .00000704  00000-0  66157-4 0  9994","NORAD_CAT_ID":"48366","SEMIMAJOR_AXIS":"6925.352","MEAN_MOTION":"15.06398855","MEAN_ANOMALY":"252.6886","PERIOD":"95.592","EPHEMERIS_TYPE":"0","CENTER_NAME":"EARTH","APOAPSIS":"547.933","EPOCH":"2022-09-01T16:52:29.091936","INCLINATION":"53.0561","OBJECT_TYPE":"PAYLOAD","TIME_SYSTEM":"UTC","LAUNCH_DATE":"2021-05-04","GP_ID":"211503012","COUNTRY_CODE":"US","REF_FRAME":"TEME","RA_OF_ASC_NODE":"0.1627","MEAN_MOTION_DDOT":"0.0000000000000","TLE_LINE2":"2 48366  53.0561   0.1627 0001034 107.4216 252.6886 15.06398855 73483"},{"EPHEMERIS_TYPE":"0","CENTER_NAME":"EARTH","PERIOD":"95.592","EPOCH":"2022-09-01T12:00:33.404832","INCLINATION":"53.0559","APOAPSIS":"548.037","SEMIMAJOR_AXIS":"6925.359","NORAD_CAT_ID":"48367","MEAN_MOTION":"15.06396709","MEAN_ANOMALY":"272.2045","COUNTRY_CODE":"US","RA_OF_ASC_NODE":"1.0672","REF_FRAME":"TEME","TLE_LINE2":"2 48367  53.0559   1.0672 0001175  87.9079 272.2045 15.06396709 73454","MEAN_MOTION_DDOT":"0.0000000000000","OBJECT_TYPE":"PAYLOAD","GP_ID":"211468082","TIME_SYSTEM":"UTC","LAUNCH_DATE":"2021-05-04","ELEMENT_SET_NO":"999","ECCENTRICITY":"0.00011750","BSTAR":"-0.00001522000000","CLASSIFICATION_TYPE":"U","RCS_SIZE":"LARGE","OBJECT_NAME":"STARLINK-2643","REV_AT_EPOCH":"7345","SITE":"AFETR","TLE_LINE1":"1 48367U 21038Q   22244.50038663 -.00000508  00000-0 -15220-4 0  9996","ARG_OF_PERICENTER":"87.9079","DECAY_DATE":null,"MEAN_MOTION_DOT":"-0.00000508","OBJECT_ID":"2021-038Q","FILE":"3553574","MEAN_ELEMENT_THEORY":"SGP4","PERIAPSIS":"546.410"},{"CLASSIFICATION_TYPE":"U","BSTAR":"0.00006631400000","ECCENTRICITY":"0.00014430","RCS_SIZE":"LARGE","ELEMENT_SET_NO":"999","PERIAPSIS":"546.212","MEAN_ELEMENT_THEORY":"SGP4","FILE":"3553574","OBJECT_ID":"2021-038R","MEAN_MOTION_DOT":"0.00000706","OBJECT_NAME":"STARLINK-2623","DECAY_DATE":null,"ARG_OF_PERICENTER":"85.6497","TLE_LINE1":"1 48368U 21038R   22244.34561440  .00000706  00000-0  66314-4 0  9991","REV_AT_EPOCH":"7343","SITE":"AFETR","NORAD_CAT_ID":"48368","SEMIMAJOR_AXIS":"6925.347","MEAN_ANOMALY":"274.4657","MEAN_MOTION":"15.06400593","PERIOD":"95.592","CENTER_NAME":"EARTH","EPHEMERIS_TYPE":"0","APOAPSIS":"548.211","EPOCH":"2022-09-01T08:17:41.084160","INCLINATION":"53.0574","OBJECT_TYPE":"PAYLOAD","LAUNCH_DATE":"2021-05-04","TIME_SYSTEM":"UTC","GP_ID":"211467829","RA_OF_ASC_NODE":"2.0410","REF_FRAME":"TEME","COUNTRY_CODE":"US","MEAN_MOTION_DDOT":"0.0000000000000","TLE_LINE2":"2 48368  53.0574   2.0410 0001443  85.6497 274.4657 15.06400593 73438"},{"ELEMENT_SET_NO":"999","ECCENTRICITY":"0.00014190","BSTAR":"-0.00003590900000","CLASSIFICATION_TYPE":"U","RCS_SIZE":"LARGE","OBJECT_NAME":"STARLINK-2641","SITE":"AFETR","REV_AT_EPOCH":"7350","TLE_LINE1":"1 48369U 21038S   22244.82843759 -.00000816  00000-0 -35909-4 0  9991","ARG_OF_PERICENTER":"76.9248","DECAY_DATE":null,"OBJECT_ID":"2021-038S","MEAN_MOTION_DOT":"-0.00000816","FILE":"3554009","MEAN_ELEMENT_THEORY":"SGP4","PERIAPSIS":"546.226","EPHEMERIS_TYPE":"0","CENTER_NAME":"EARTH","PERIOD":"95.592","EPOCH":"2022-09-01T19:52:57.007776","INCLINATION":"53.0554","APOAPSIS":"548.191","SEMIMAJOR_AXIS":"6925.343","NORAD_CAT_ID":"48369","MEAN_MOTION":"15.06401728","MEAN_ANOMALY":"283.1899","COUNTRY_CODE":"US","RA_OF_ASC_NODE":"359.5976","REF_FRAME":"TEME","TLE_LINE2":"2 48369  53.0554 359.5976 0001419  76.9248 283.1899 15.06401728 73508","MEAN_MOTION_DDOT":"0.0000000000000","OBJECT_TYPE":"PAYLOAD","GP_ID":"211502261","TIME_SYSTEM":"UTC","LAUNCH_DATE":"2021-05-04"},{"ELEMENT_SET_NO":"999","RCS_SIZE":"LARGE","CLASSIFICATION_TYPE":"U","BSTAR":"-0.00007784600000","ECCENTRICITY":"0.00013670","DECAY_DATE":null,"ARG_OF_PERICENTER":"86.1492","TLE_LINE1":"1 48370U 21038T   22244.36032756 -.00001440  00000-0 -77846-4 0  9999","REV_AT_EPOCH":"7343","SITE":"AFETR","OBJECT_NAME":"STARLINK-2621","PERIAPSIS":"546.293","FILE":"3553574","MEAN_ELEMENT_THEORY":"SGP4","OBJECT_ID":"2021-038T","MEAN_MOTION_DOT":"-0.00001440","APOAPSIS":"548.186","EPOCH":"2022-09-01T08:38:52.301184","INCLINATION":"53.0565","PERIOD":"95.593","CENTER_NAME":"EARTH","EPHEMERIS_TYPE":"0","MEAN_ANOMALY":"273.9653","MEAN_MOTION":"15.06391504","NORAD_CAT_ID":"48370","SEMIMAJOR_AXIS":"6925.375","MEAN_MOTION_DDOT":"0.0000000000000","TLE_LINE2":"2 48370  53.0565   1.6920 0001367  86.1492 273.9653 15.06391504 73439","RA_OF_ASC_NODE":"1.6920","REF_FRAME":"TEME","COUNTRY_CODE":"US","LAUNCH_DATE":"2021-05-04","TIME_SYSTEM":"UTC","GP_ID":"211466832","OBJECT_TYPE":"PAYLOAD"}];
